[{"OBJECT_NAME":"OBJECT H","OBJECT_ID":"2023-091H","EPOCH":"2026-03-09T22:34:46.487712","MEAN_MOTION":15.26380881,"ECCENTRICITY":0.00117854,"INCLINATION":97.5166,"RA_OF_ASC_NODE":131.4381,"ARG_OF_PERICENTER":104.1062,"MEAN_ANOMALY":256.1487,"EPHEMERIS_TYPE":0,"CLASSIFICATION_TYPE":"U","NORAD_CAT_ID":57173,"ELEMENT_SET_NO":999,"REV_AT_EPOCH":14915,"BSTAR":0.00056321781,"MEAN_MOTION_DOT":0.00014617,"MEAN_MOTION_DDOT":0},{"OBJECT_NAME":"STARLINK-35935","OBJECT_ID":"2025-265M","EPOCH":"2026-03-09T13:46:07.527072","MEAN_MOTION":15.27613078,"ECCENTRICITY":0.0001952,"INCLINATION":43.0066,"RA_OF_ASC_NODE":278.7646,"ARG_OF_PERICENTER":251.4524,"MEAN_ANOMALY":108.6116,"EPHEMERIS_TYPE":0,"CLASSIFICATION_TYPE":"U","NORAD_CAT_ID":66527,"ELEMENT_SET_NO":999,"REV_AT_EPOCH":1709,"BSTAR":0.0023305,"MEAN_MOTION_DOT":0.00064497,"MEAN_MOTION_DDOT":0}]
